#dP2019  4 21  0  0  0.00000000      96 __u+U IGS08 FIT  IAC
## 2050      0.00000000   900.00000000 58594 0.0000000000000
+   97   C01C02C03C04C05C06C07C08C09C10C11C12C13C14C16E01E02
+        E03E04E05E07E08E09E11E12E13E14E15E18E19E21E24E25E26
+        E27E30E31E33E36G01G02G03G04G05G06G07G08G09G10G11G12
+        G13G14G15G16G17G18G19G20G21G22G23G24G25G26G27G28G29
+        G30G31G32J01J02J03R01R02R03R04R05R07R08R09R10R11R13
+        R14R15R16R17R18R19R20R21R22R23R24R26  0  0  0  0  0
++        13 12 16 12 12  8  8  8  8  8  7  7  8  7  8  4  4
++         4  4  4  4  4  4  4  4  4  4  4  4  4  4  4  4  4
++         4  4  0  5  4  3  3  5  4  3  3  3  3  3  3  3  3
++         3  3  3  3  3  3  3  3  3  3  3  3  3  3  3  3  4
++         3  3  3  9  9  9  5  5  5  5  5  5  5  5  5  5  6
++         5  5  6  5  5  5  6  5  5  5  6  8  0  0  0  0  0
%c M  cc GPS ccc cccc cccc cccc cccc ccccc ccccc ccccc ccccc
%c cc cc ccc ccc cccc cccc cccc cccc ccccc ccccc ccccc ccccc
%f  1.2500000  1.025000000  0.00000000000  0.000000000000000
%f  0.0000000  0.000000000  0.00000000000  0.000000000000000
%i    0    0    0    0      0      0      0      0         0
%i    0    0    0    0      0      0      0      0         0
/* INFORMATION & ANALYSIS CENTER (IAC)            FINAL DATA
/* S/V CLOCKS ARE ALIGNED TO GPS & GLONASS TIME RESPECTIVELY
/* USING THE BROADCAST EPHEMERIS                            
/* PCV:IGS14_2045 OL/AL:FES2004  NONE     YN ORB:CoN CLK:CoN
*  2019 04 21 14 30  0.00000000
PC01 -32286.912095  27106.944884   -584.396921    487.788940
PC02   4447.819986  41934.176915   1174.280107    206.787130
PC03 -14827.083731  39498.318184    348.427265 999999.999999
PC04 -39626.772985  14398.640825    -71.723672   -137.995506
PC05  21854.563005  36043.313589   1221.313685   -265.219476
PC06 -21221.746454  36658.909229   -124.427025    715.414491
PC07  -8499.667006  28656.627298 -29439.152357   -312.806380
PC08 -21071.480186  19206.559805  31050.667707    148.544030
PC09 -10514.132740  37660.387872 -16013.285132    703.508546
PC10   4496.386152  35975.188920 -21079.048218   -683.470286
PC11 -24370.487702  11702.716951  -6753.884229   -112.831805
PC12 -10905.132796 -10989.003266 -23150.325178    597.850666
PC13  -4052.120969  23300.324053  34947.729853   -666.342468
PC14 -16248.996426  -4290.419631  22338.823316    665.177519
PC16 -17300.257112  38189.034027  -5208.702649   -596.467765
PE01  13418.776442  24250.948158 -10399.700423   -588.473032
PE02 -13461.642947 -24239.875447  10342.428797     56.900519
PE03  -2510.126495 -25993.708902  13953.715106   -157.689394
PE04  14679.216959   9786.662213 -23758.389373   -266.023844
PE05  11226.838321 -27077.828112  -4112.116703     70.281596
PE07 -18344.336351  12310.696391  19707.658646   -172.983944
PE08 -14668.898960  -9537.456519  23884.367380   6368.650383
PE09  18119.622322 -12548.320878 -19754.545452   6462.748830
PE11  28278.457672  -8437.426122  -2123.996250   5704.632352
PE12  24223.082748   5130.108554  16208.009791   6433.687513
PE13 -28298.310219   8481.224962   1970.156702    385.940546
PE14  19275.490249  -5607.317965  13423.649950   -537.718649
PE15 -24476.338244  -4706.934644 -15963.899648    913.067619
PE18 -23338.598181   -975.601641 -22057.932991   -636.448132
PE19   1071.548246  26848.615414 -12412.839736     -6.927488
PE21  -4367.290637  17743.870954 -23294.217023   -530.179721
PE24  19303.775937  -1094.729280  22401.746547   6121.019603
PE25   4410.858046 -17707.523996  23304.786788   1827.806683
PE26 -15679.758305  16739.573194  18720.923002   4656.900999
PE27 -19468.941608    820.851664 -22283.095389    485.437459
PE30 -23100.728369 -16428.044136  -8519.879041   4933.351318
PE31  23124.431729  16546.759162   8219.713181 999999.999999
PE33   6289.698357  15194.289873  24620.721424   -470.541868
PE36  15552.039405 -16738.919580 -18803.202826    721.521686
PG01 -15901.648732 -13483.956570 -16818.649538   -206.678735
PG02  -7921.443645  14644.953932  21270.924315   -194.531540
PG03 -12476.793728 -23251.451114   3377.292135    188.310383
PG04 -19192.057259   3890.447971  17958.236708    151.873535
PG05   -521.975585  22535.827136  13764.304044      1.092860
PG06 -20471.568549   7876.275737  15046.767198    225.192735
PG07 -25176.608259  -7448.241732   5683.870943     -9.205013
PG08   1295.531253 -20774.589312 -16341.920260   -140.731123
PG09 -16580.307725  -2106.133268  20603.532039    424.986886
PG10  14989.718553  -3287.164302 -21629.583868     67.091209
PG11 -10606.322151 -13491.528947 -20765.444811   -622.164532
PG12  10364.834570  24400.658849   2580.089031    249.295416
PG13 -10369.485574  21811.466049 -11116.757616    -66.885802
PG14  18836.963418 -18294.633768  -2939.760243    -83.611069
PG15   2549.968211  20250.016711 -17051.330947   -317.201318
PG16   1505.587054 -22853.587362  12871.147666    -34.312104
PG17 -20245.376653  12564.124006 -11236.335708     42.534543
PG18  -6009.281067 -15514.993578 -21217.024051     46.261994
PG19 -19838.088425  17248.372005  -4406.811612   -328.069914
PG20  18866.253830   6015.793979 -17871.227032    524.142808
PG21  26280.307231   3025.193574   1951.837538   -207.938992
PG22  -9270.586472 -24572.301697  -3986.120538   -687.676280
PG23  -9137.093403 -13578.405966  21183.341520   -189.327888
PG24  12595.929307  14520.957751 -18616.710960    -65.070415
PG25  16513.026912  16343.112271  12894.441393   -748.112602
PG26   8203.276791 -15763.982763  19663.410298    181.764082
PG27  10731.780660 -22931.741768  -7592.371677   -113.601387
PG28 -14655.955115   1332.973734 -21498.954549    767.576439
PG29  12762.616552   7515.261568  22017.739937    220.111488
PG30 -25977.666658    132.537865  -5964.317185    -90.567773
PG31  19915.886835  -8214.658360  15818.981231     43.506362
PG32  19499.039023 -15239.206094  -9427.711836   -122.313646
PJ01 -25607.893801  26747.551009  25212.582240   -320.251305
PJ02 -24334.054644  16422.383648 -25895.015443      1.773512
PJ03 -27129.440844  32008.156749     78.963761     -0.278443
PR01  -9754.960856  15124.425440  18074.932439     42.663371
PR02  -2082.993247  25450.105363   -149.611879    364.797536
PR03   6288.407699  18571.078161 -16298.282441     -5.968664
PR04  10979.517675    265.942923 -23001.598465    303.330691
PR05   9174.235709 -17088.106598 -16542.463208     26.604159
PR07  -6538.640537 -18084.686705  16777.494341    -18.660662
PR08 -10947.294255  -1091.252602  23069.534924     18.125560
PR09  -6944.777035 -15933.672190  18707.113323     65.640481
PR10 -18508.366419 -16555.187192   5984.903464     48.132003
PR11 -21166.070130  -7664.487474 -12030.584898    -63.666228
PR13   5615.707257  15095.227465 -19802.174267    -22.701249
PR14  18613.207763  16403.849519  -5897.970924     38.153269
PR15  21288.592633   8309.028426  11351.973039    101.479975
PR16  11753.503768  -4910.594459  22092.003441     10.075354
PR17   9342.733486   7101.526748  22661.642344    222.066828
PR18  21517.260328  -3410.387081  13228.176322     -9.552201
PR19  22465.630652 -11577.732240  -3429.221086    -26.655239
PR20   9061.998645 -13561.368546 -19583.371844   -375.649720
PR21  -9853.401362  -6704.361537 -22548.133702    -43.692427
PR22 -22593.809467   5030.725736 -10860.396401    -15.511689
PR23 -19935.606526  13447.434921   8517.504192    223.160791
PR24  -7210.417115  13459.646715  20417.163125   -179.587752
PR26  11206.028724 -14149.065049 -18021.207087    -11.410057
EOF
